KUIPER-00438            
1 68940U 26098X   26196.16670139  .00030059  00000+0  16849-2 0  9995
2 68940  51.8876 294.3633 0004500 296.8215  82.2519 15.13136606  4481
KUIPER-00439            
1 68941U 26098Y   26196.16670139 -.00003411  00000+0 -16032-3 0  9995
2 68941  51.8845 294.4606 0004561 262.6588 105.9517 15.15797281  4227
KUIPER-00440            
1 68942U 26098Z   26195.57967176  .00007509  00000+0  25490-3 0  9998
2 68942  51.8789 296.5894 0002673 300.0622  60.0097 15.31494637 11549
KUIPER-00442            
1 68943U 26098AA  26195.59782401  .00010692  00000+0  32551-3 0  9990
2 68943  51.8800 295.9775 0003417 261.2915  98.7684 15.34531145 11555
KUIPER-00446            
1 68944U 26098AB  26196.16670139  .00001517  00000+0  75532-4 0  9992
2 68944  51.8811 293.5174 0004153 228.5163 229.0648 15.24009396  5407
KUIPER-00451            
1 68945U 26098AC  26196.16670139 -.00003328  00000+0 -35802-3 0  9992
2 68945  51.8992 299.3228 0007702 234.1263 154.3676 14.85145106  5596
KUIPER-00452            
1 68946U 26098AD  26196.16670139 -.01154532  00000+0 -37022-1 0  9992
2 68946  51.8761 292.4796 0002736 270.1671 355.9826 15.34760244  5834
KUIPER-00453            
1 68947U 26098AE  26195.55600137  .00021588  00000+0  58779-3 0  9991
2 68947  51.8753 294.9523 0003558 327.5958  32.4810 15.37436180 11568
KUIPER-00454            
1 68948U 26098AF  26196.16670139  .00032610  00000+0  42651-2 0  9998
2 68948  51.9327 300.5413 0001135 355.0117 252.1800 14.80138408  5204
KUIPER-00455            
1 68949U 26098AG  26196.16670139 -.00003930  00000+0 -40802-3 0  9991
2 68949  51.8956 299.5672 0017492 245.6415 186.3920 14.86905723  5382
KUIPER-00458            
1 68950U 26098AH  26195.58409030  .00010150  00000+0  28798-3 0  9998
2 68950  51.8775 295.1457 0003102 299.4548  60.6129 15.36819321 11569
KUIPER-00282            
1 69267U 26118A   26196.16670139 -.01706951  00000+0 -96783-1 0  9999
2 69267  51.8758 279.5202 0010195 299.3084  79.8228 15.16109266  4944
KUIPER-00383            
1 69268U 26118B   26196.16670139 -.01262051  00000+0 -47925-1 0  9992
2 69268  51.8621 278.9535 0008981 291.0545  34.2058 15.29112634  5828
KUIPER-00527            
1 69269U 26118C   26196.16670139 -.01959835  00000+0 -78763-1 0  9990
2 69269  51.8702 278.8505 0008443 285.9713  79.0896 15.27634686  5862
KUIPER-00562            
1 69270U 26118D   26195.59935657  .00008866  00000+0  24296-3 0  9997
2 69270  51.8715 280.4015 0000688  22.5329 337.5688 15.38076208  8208
KUIPER-00570            
1 69271U 26118E   26196.16670139  .00003586  00000+0  29200-3 0  9997
2 69271  51.8830 280.6628 0007151 300.4887 190.6937 15.01852257  5699
