{"fetched_at":"2026-07-15T17:46:44.919Z","source":"https://celestrak.org/NORAD/elements/gp.php?GROUP=kuiper&FORMAT=JSON","constellation":"kuiper","records":[{"OBJECT_NAME":"KUIPER-00438","OBJECT_ID":"2026-098X","EPOCH":"2026-07-15T04:00:03.000096","CLASSIFICATION_TYPE":"U","MEAN_MOTION":15.13136606,"ECCENTRICITY":0.00045,"INCLINATION":51.8876,"RA_OF_ASC_NODE":294.3633,"ARG_OF_PERICENTER":296.8215,"MEAN_ANOMALY":82.2519,"EPHEMERIS_TYPE":0,"NORAD_CAT_ID":68940,"ELEMENT_SET_NO":999,"REV_AT_EPOCH":448,"BSTAR":0.0016849,"MEAN_MOTION_DOT":0.00030059,"MEAN_MOTION_DDOT":0},{"OBJECT_NAME":"KUIPER-00439","OBJECT_ID":"2026-098Y","EPOCH":"2026-07-15T04:00:03.000096","CLASSIFICATION_TYPE":"U","MEAN_MOTION":15.15797281,"ECCENTRICITY":0.0004561,"INCLINATION":51.8845,"RA_OF_ASC_NODE":294.4606,"ARG_OF_PERICENTER":262.6588,"MEAN_ANOMALY":105.9517,"EPHEMERIS_TYPE":0,"NORAD_CAT_ID":68941,"ELEMENT_SET_NO":999,"REV_AT_EPOCH":422,"BSTAR":-0.00016032,"MEAN_MOTION_DOT":-0.00003411,"MEAN_MOTION_DDOT":0},{"OBJECT_NAME":"KUIPER-00440","OBJECT_ID":"2026-098Z","EPOCH":"2026-07-14T13:54:43.640064","CLASSIFICATION_TYPE":"U","MEAN_MOTION":15.31494637,"ECCENTRICITY":0.0002673,"INCLINATION":51.8789,"RA_OF_ASC_NODE":296.5894,"ARG_OF_PERICENTER":300.0622,"MEAN_ANOMALY":60.0097,"EPHEMERIS_TYPE":0,"NORAD_CAT_ID":68942,"ELEMENT_SET_NO":999,"REV_AT_EPOCH":1154,"BSTAR":0.0002549,"MEAN_MOTION_DOT":0.00007509,"MEAN_MOTION_DDOT":0},{"OBJECT_NAME":"KUIPER-00442","OBJECT_ID":"2026-098AA","EPOCH":"2026-07-14T14:20:51.994464","CLASSIFICATION_TYPE":"U","MEAN_MOTION":15.34531145,"ECCENTRICITY":0.00034171,"INCLINATION":51.88,"RA_OF_ASC_NODE":295.9775,"ARG_OF_PERICENTER":261.2915,"MEAN_ANOMALY":98.7684,"EPHEMERIS_TYPE":0,"NORAD_CAT_ID":68943,"ELEMENT_SET_NO":999,"REV_AT_EPOCH":1155,"BSTAR":0.00032551292,"MEAN_MOTION_DOT":0.00010692,"MEAN_MOTION_DDOT":0},{"OBJECT_NAME":"KUIPER-00446","OBJECT_ID":"2026-098AB","EPOCH":"2026-07-15T04:00:03.000096","CLASSIFICATION_TYPE":"U","MEAN_MOTION":15.24009396,"ECCENTRICITY":0.0004153,"INCLINATION":51.8811,"RA_OF_ASC_NODE":293.5174,"ARG_OF_PERICENTER":228.5163,"MEAN_ANOMALY":229.0648,"EPHEMERIS_TYPE":0,"NORAD_CAT_ID":68944,"ELEMENT_SET_NO":999,"REV_AT_EPOCH":540,"BSTAR":0.000075532,"MEAN_MOTION_DOT":0.00001517,"MEAN_MOTION_DDOT":0},{"OBJECT_NAME":"KUIPER-00451","OBJECT_ID":"2026-098AC","EPOCH":"2026-07-15T04:00:03.000096","CLASSIFICATION_TYPE":"U","MEAN_MOTION":14.85145106,"ECCENTRICITY":0.0007702,"INCLINATION":51.8992,"RA_OF_ASC_NODE":299.3228,"ARG_OF_PERICENTER":234.1263,"MEAN_ANOMALY":154.3676,"EPHEMERIS_TYPE":0,"NORAD_CAT_ID":68945,"ELEMENT_SET_NO":999,"REV_AT_EPOCH":559,"BSTAR":-0.00035802,"MEAN_MOTION_DOT":-0.00003328,"MEAN_MOTION_DDOT":0},{"OBJECT_NAME":"KUIPER-00452","OBJECT_ID":"2026-098AD","EPOCH":"2026-07-15T04:00:03.000096","CLASSIFICATION_TYPE":"U","MEAN_MOTION":15.34760244,"ECCENTRICITY":0.0002736,"INCLINATION":51.8761,"RA_OF_ASC_NODE":292.4796,"ARG_OF_PERICENTER":270.1671,"MEAN_ANOMALY":355.9826,"EPHEMERIS_TYPE":0,"NORAD_CAT_ID":68946,"ELEMENT_SET_NO":999,"REV_AT_EPOCH":583,"BSTAR":-0.037022,"MEAN_MOTION_DOT":-0.01154532,"MEAN_MOTION_DDOT":0},{"OBJECT_NAME":"KUIPER-00453","OBJECT_ID":"2026-098AE","EPOCH":"2026-07-14T13:20:38.518368","CLASSIFICATION_TYPE":"U","MEAN_MOTION":15.3743618,"ECCENTRICITY":0.00035581,"INCLINATION":51.8753,"RA_OF_ASC_NODE":294.9523,"ARG_OF_PERICENTER":327.5958,"MEAN_ANOMALY":32.481,"EPHEMERIS_TYPE":0,"NORAD_CAT_ID":68947,"ELEMENT_SET_NO":999,"REV_AT_EPOCH":1156,"BSTAR":0.00058778927,"MEAN_MOTION_DOT":0.00021588,"MEAN_MOTION_DDOT":0},{"OBJECT_NAME":"KUIPER-00454","OBJECT_ID":"2026-098AF","EPOCH":"2026-07-15T04:00:03.000096","CLASSIFICATION_TYPE":"U","MEAN_MOTION":14.80138408,"ECCENTRICITY":0.0001135,"INCLINATION":51.9327,"RA_OF_ASC_NODE":300.5413,"ARG_OF_PERICENTER":355.0117,"MEAN_ANOMALY":252.18,"EPHEMERIS_TYPE":0,"NORAD_CAT_ID":68948,"ELEMENT_SET_NO":999,"REV_AT_EPOCH":520,"BSTAR":0.0042651,"MEAN_MOTION_DOT":0.0003261,"MEAN_MOTION_DDOT":0},{"OBJECT_NAME":"KUIPER-00455","OBJECT_ID":"2026-098AG","EPOCH":"2026-07-15T04:00:03.000096","CLASSIFICATION_TYPE":"U","MEAN_MOTION":14.86905723,"ECCENTRICITY":0.0017492,"INCLINATION":51.8956,"RA_OF_ASC_NODE":299.5672,"ARG_OF_PERICENTER":245.6415,"MEAN_ANOMALY":186.392,"EPHEMERIS_TYPE":0,"NORAD_CAT_ID":68949,"ELEMENT_SET_NO":999,"REV_AT_EPOCH":538,"BSTAR":-0.00040802,"MEAN_MOTION_DOT":-0.0000393,"MEAN_MOTION_DDOT":0},{"OBJECT_NAME":"KUIPER-00458","OBJECT_ID":"2026-098AH","EPOCH":"2026-07-14T14:01:05.401920","CLASSIFICATION_TYPE":"U","MEAN_MOTION":15.36819321,"ECCENTRICITY":0.0003102,"INCLINATION":51.8775,"RA_OF_ASC_NODE":295.1457,"ARG_OF_PERICENTER":299.4548,"MEAN_ANOMALY":60.6129,"EPHEMERIS_TYPE":0,"NORAD_CAT_ID":68950,"ELEMENT_SET_NO":999,"REV_AT_EPOCH":1156,"BSTAR":0.00028798,"MEAN_MOTION_DOT":0.0001015,"MEAN_MOTION_DDOT":0},{"OBJECT_NAME":"KUIPER-00282","OBJECT_ID":"2026-118A","EPOCH":"2026-07-15T04:00:03.000096","CLASSIFICATION_TYPE":"U","MEAN_MOTION":15.16109266,"ECCENTRICITY":0.0010195,"INCLINATION":51.8758,"RA_OF_ASC_NODE":279.5202,"ARG_OF_PERICENTER":299.3084,"MEAN_ANOMALY":79.8228,"EPHEMERIS_TYPE":0,"NORAD_CAT_ID":69267,"ELEMENT_SET_NO":999,"REV_AT_EPOCH":494,"BSTAR":-0.096783,"MEAN_MOTION_DOT":-0.01706951,"MEAN_MOTION_DDOT":0},{"OBJECT_NAME":"KUIPER-00383","OBJECT_ID":"2026-118B","EPOCH":"2026-07-15T04:00:03.000096","CLASSIFICATION_TYPE":"U","MEAN_MOTION":15.29112634,"ECCENTRICITY":0.0008981,"INCLINATION":51.8621,"RA_OF_ASC_NODE":278.9535,"ARG_OF_PERICENTER":291.0545,"MEAN_ANOMALY":34.2058,"EPHEMERIS_TYPE":0,"NORAD_CAT_ID":69268,"ELEMENT_SET_NO":999,"REV_AT_EPOCH":582,"BSTAR":-0.047925,"MEAN_MOTION_DOT":-0.01262051,"MEAN_MOTION_DDOT":0},{"OBJECT_NAME":"KUIPER-00527","OBJECT_ID":"2026-118C","EPOCH":"2026-07-15T04:00:03.000096","CLASSIFICATION_TYPE":"U","MEAN_MOTION":15.27634686,"ECCENTRICITY":0.0008443,"INCLINATION":51.8702,"RA_OF_ASC_NODE":278.8505,"ARG_OF_PERICENTER":285.9713,"MEAN_ANOMALY":79.0896,"EPHEMERIS_TYPE":0,"NORAD_CAT_ID":69269,"ELEMENT_SET_NO":999,"REV_AT_EPOCH":586,"BSTAR":-0.078763,"MEAN_MOTION_DOT":-0.01959835,"MEAN_MOTION_DDOT":0},{"OBJECT_NAME":"KUIPER-00562","OBJECT_ID":"2026-118D","EPOCH":"2026-07-14T14:23:04.407648","CLASSIFICATION_TYPE":"U","MEAN_MOTION":15.38076208,"ECCENTRICITY":0.0000688,"INCLINATION":51.8715,"RA_OF_ASC_NODE":280.4015,"ARG_OF_PERICENTER":22.5329,"MEAN_ANOMALY":337.5688,"EPHEMERIS_TYPE":0,"NORAD_CAT_ID":69270,"ELEMENT_SET_NO":999,"REV_AT_EPOCH":820,"BSTAR":0.00024295856,"MEAN_MOTION_DOT":0.00008866,"MEAN_MOTION_DDOT":0},{"OBJECT_NAME":"KUIPER-00570","OBJECT_ID":"2026-118E","EPOCH":"2026-07-15T04:00:03.000096","CLASSIFICATION_TYPE":"U","MEAN_MOTION":15.01852257,"ECCENTRICITY":0.0007151,"INCLINATION":51.883,"RA_OF_ASC_NODE":280.6628,"ARG_OF_PERICENTER":300.4887,"MEAN_ANOMALY":190.6937,"EPHEMERIS_TYPE":0,"NORAD_CAT_ID":69271,"ELEMENT_SET_NO":999,"REV_AT_EPOCH":569,"BSTAR":0.000292,"MEAN_MOTION_DOT":0.00003586,"MEAN_MOTION_DDOT":0}]}
